[{"OBJECT_NAME":"STARLINK-34357","OBJECT_ID":"2025-123V","EPOCH":"2026-03-09T18:00:31.849632","MEAN_MOTION":14.98336272,"ECCENTRICITY":0.00033879,"INCLINATION":70.0024,"RA_OF_ASC_NODE":194.4641,"ARG_OF_PERICENTER":271.5106,"MEAN_ANOMALY":88.5665,"EPHEMERIS_TYPE":0,"CLASSIFICATION_TYPE":"U","NORAD_CAT_ID":64310,"ELEMENT_SET_NO":999,"REV_AT_EPOCH":4162,"BSTAR":0.0006925715,"MEAN_MOTION_DOT":8.182e-5,"MEAN_MOTION_DDOT":0},{"OBJECT_NAME":"CZ-6A DEB","OBJECT_ID":"2024-140RW","EPOCH":"2026-03-09T13:41:33.080928","MEAN_MOTION":14.61642776,"ECCENTRICITY":0.0186599,"INCLINATION":89.0814,"RA_OF_ASC_NODE":287.5784,"ARG_OF_PERICENTER":250.6629,"MEAN_ANOMALY":107.4326,"EPHEMERIS_TYPE":0,"CLASSIFICATION_TYPE":"U","NORAD_CAT_ID":61176,"ELEMENT_SET_NO":999,"REV_AT_EPOCH":8226,"BSTAR":0.00033771,"MEAN_MOTION_DOT":2.172e-5,"MEAN_MOTION_DDOT":0}]
